0 FENGYUN 1C DEB
1 35217U 99025DPZ 13282.47939327  .00000643  00000-0  87825-3 0  2835
2 35217 101.8715 011.1058 0333319 000.0769 000.0375 13.43486177295323
0 FENGYUN 1C DEB
1 35217U 99025DPZ 13283.44744712  .00000688  00000-0  93600-3 0  2843
2 35217 101.8731 012.2493 0332294 358.0362 001.9791 13.43488855295453
0 FENGYUN 1C DEB
1 35217U 99025DPZ 13285.45800847  .00000709  00000-0  96427-3 0  2853
2 35217 101.8739 014.6218 0331388 353.5686 006.1389 13.43492462295723
0 FENGYUN 1C DEB
1 35217U 99025DPZ 13287.46856979  .00000735  00000-0  99564-3 0  2868
2 35217 101.8740 016.9918 0331869 348.9830 010.4238 13.43496250295999
0 FENGYUN 1C DEB
1 35217U 99025DPZ 13288.06428972  .00000791  00000-0  10661-2 0  2876
2 35217 101.8750 017.6976 0331699 347.7123 011.6563 13.43499131296070
0 FENGYUN 1C DEB
1 35217U 99025DPZ 13292.08538604  .00000844  00000-0  11289-2 0  2884
2 35217 101.8716 022.4258 0333337 338.4172 020.3541 13.43507809296616
0 FENGYUN 1C DEB
1 35217U 99025DPZ 13292.45770187  .00000964  00000-0  12732-2 0  2897
2 35217 101.8640 022.8476 0335608 337.1460 021.6247 13.43513092296660
0 FENGYUN 1C DEB
1 35217U 99025DPZ 13294.46821381  .00001041  00000-0  13806-2 0  2905
2 35217 101.8689 025.2199 0331250 332.4575 026.0299 13.43519659296937
0 FENGYUN 1C DEB
1 35217U 99025DPZ 13295.43622725  .00001093  00000-0  14451-2 0  2919
2 35217 101.8684 026.3568 0331401 330.1583 028.1466 13.43523580297068
